NORAD_CAT_ID,OBJECT_NAME,OBJECT_TYPE,EPOCH,MEAN_MOTION,ECCENTRICITY,INCLINATION,RA_OF_ASC_NODE,ARG_OF_PERICENTER,MEAN_ANOMALY,BSTAR,MEAN_MOTION_DOT,MEAN_MOTION_DDOT,TLE_LINE0,TLE_LINE1,TLE_LINE2,SEMIMAJOR_AXIS,PERIOD,APOGEE,PERIGEE,DECAYED
50825.0,STARLINK-3332,PAYLOAD,2023-10-28 13:44:25,15.08831292,0.0001763,53.2176,83.8055,92.8115,267.3079,-7.4534e-05,-1.474e-05,0.0,0 STARLINK-3332,1 50825U 22001Y   23301.57251399 -.00001474  00000-0 -74534-4 0  9990,2 50825  53.2176  83.8055 0001763  92.8115 267.3079 15.08831292100103,6917.907,95.438,540.992,538.552,0.0
50825.0,STARLINK-3332,PAYLOAD,2023-10-28 16:55:09,15.08880011,9.89e-05,53.2167,83.2083,81.8412,278.2692,0.00066815,0.00010373,0.0,0 STARLINK-3332,1 50825U 22001Y   23301.70497075  .00010373  00000-0  66815-3 0  9996,2 50825  53.2167  83.2083 0000989  81.8412 278.2692 15.08880011101392,6917.758,95.435,540.307,538.939,0.0
50825.0,STARLINK-3332,PAYLOAD,2023-10-29 02:27:29,15.0884167,0.0001196,53.2166,81.4251,82.1902,277.9226,7.5824e-05,9.19e-06,0.0,0 STARLINK-3332,1 50825U 22001Y   23302.10243021  .00000919  00000-0  75824-4 0  9997,2 50825  53.2166  81.4251 0001196  82.1902 277.9226 15.08841670101451,6917.875,95.437,540.568,538.913,0.0
50825.0,STARLINK-3332,PAYLOAD,2023-10-29 13:35:11,15.08849825,0.0001447,53.2169,79.3444,82.1781,277.9376,0.00031973,4.806e-05,0.0,0 STARLINK-3332,1 50825U 22001Y   23302.56610782  .00004806  00000-0  31973-3 0  9994,2 50825  53.2169  79.3444 0001447  82.1781 277.9376 15.08849825100251,6917.85,95.437,540.716,538.714,0.0
50825.0,STARLINK-3332,PAYLOAD,2023-10-29 16:45:57,15.08857561,0.0001137,53.2165,78.7492,76.0094,284.1025,0.00042936,6.555e-05,0.0,0 STARLINK-3332,1 50825U 22001Y   23302.69858356  .00006555  00000-0  42936-3 0  9993,2 50825  53.2165  78.7492 0001137  76.0094 284.1025 15.08857561101548,6917.827,95.436,540.478,538.905,0.0
50825.0,STARLINK-3332,PAYLOAD,2023-10-30 02:18:16,15.08844402,0.0001268,53.2176,76.9642,82.6652,277.4484,0.00023259,3.416e-05,0.0,0 STARLINK-3332,1 50825U 22001Y   23303.09602804  .00003416  00000-0  23259-3 0  9993,2 50825  53.2176  76.9642 0001268  82.6652 277.4484 15.08844402101606,6917.867,95.437,540.609,538.855,0.0
50825.0,STARLINK-3332,PAYLOAD,2023-10-30 18:12:08,15.0883664,0.0001488,53.217,73.9922,88.3982,271.7181,7.8458e-06,-1.63e-06,0.0,0 STARLINK-3332,1 50825U 22001Y   23303.75843332 -.00000163  00000-0  78458-5 0  9999,2 50825  53.2170  73.9922 0001488  88.3982 271.7181 15.08836640101708,6917.891,95.438,540.785,538.726,0.0
50825.0,STARLINK-3332,PAYLOAD,2023-10-31 02:09:04,15.0882871,4.69e-05,53.2171,72.5053,107.4039,252.7004,-0.00013914,-2.5e-05,0.0,0 STARLINK-3332,1 50825U 22001Y   23304.08963446 -.00002500  00000-0 -13914-3 0  9997,2 50825  53.2171  72.5053 0000469 107.4039 252.7004 15.08828710101750,6917.915,95.438,540.104,539.455,0.0
50825.0,STARLINK-3332,PAYLOAD,2023-10-31 14:52:09,15.08839803,0.0001355,53.2172,70.1258,87.729,272.3857,0.00046644,7.143e-05,0.0,0 STARLINK-3332,1 50825U 22001Y   23304.61955793  .00007143  00000-0  46644-3 0  9994,2 50825  53.2172  70.1258 0001355  87.7290 272.3857 15.08839803100563,6917.881,95.438,540.683,538.809,0.0
50825.0,STARLINK-3332,PAYLOAD,2023-11-01 14:42:56,15.08850756,0.0001376,53.2168,65.666,84.3435,275.7714,0.00050339,7.735e-05,0.0,0 STARLINK-3332,1 50825U 22001Y   23305.61315650  .00007735  00000-0  50339-3 0  9990,2 50825  53.2168  65.6660 0001376  84.3435 275.7714 15.08850756100717,6917.848,95.437,540.664,538.761,0.0
50825.0,STARLINK-3332,PAYLOAD,2023-11-02 12:58:20,15.08841518,0.0001498,53.2185,61.5041,88.7638,271.3526,0.00017857,2.555e-05,0.0,0 STARLINK-3332,1 50825U 22001Y   23306.54051787  .00002555  00000-0  17857-3 0  9994,2 50825  53.2185  61.5041 0001498  88.7638 271.3526 15.08841518102128,6917.876,95.437,540.777,538.704,0.0
50825.0,STARLINK-3332,PAYLOAD,2023-11-02 14:33:43,15.08847638,0.0001433,53.2184,61.2027,91.8125,268.3031,0.00014721,2.056e-05,0.0,0 STARLINK-3332,1 50825U 22001Y   23306.60675362  .00002056  00000-0  14721-3 0  9995,2 50825  53.2184  61.2027 0001433  91.8125 268.3031 15.08847638100868,6917.857,95.437,540.713,538.731,0.0
50825.0,STARLINK-3332,PAYLOAD,2023-11-02 17:44:29,15.0884763,0.0001451,53.2185,60.6084,91.7692,268.3467,0.00014559,2.03e-05,0.0,0 STARLINK-3332,1 50825U 22001Y   23306.73923321  .00002030  00000-0  14559-3 0  9991,2 50825  53.2185  60.6084 0001451  91.7692 268.3467 15.08847630100880,6917.857,95.437,540.726,538.718,0.0
50825.0,STARLINK-3332,PAYLOAD,2023-11-03 14:24:30,15.08842536,0.0001227,53.2181,56.745,88.2937,271.8195,5.5521e-06,-1.99e-06,0.0,0 STARLINK-3332,1 50825U 22001Y   23307.60035504 -.00000199  00000-0  55521-5 0  9996,2 50825  53.2181  56.7450 0001227  88.2937 271.8195 15.08842536101016,6917.873,95.437,540.586,538.889,0.0
50825.0,STARLINK-3332,PAYLOAD,2023-11-03 17:35:16,15.08849562,0.0001377,53.218,56.1491,88.7514,271.3636,0.00011257,1.505e-05,0.0,0 STARLINK-3332,1 50825U 22001Y   23307.73283166  .00001505  00000-0  11257-3 0  9996,2 50825  53.2180  56.1491 0001377  88.7514 271.3636 15.08849562102300,6917.851,95.437,540.669,538.764,0.0
50825.0,STARLINK-3332,PAYLOAD,2023-11-04 11:04:31,15.08836683,0.000145,53.218,52.8761,92.8493,267.2665,1.5156e-05,-4.7e-07,0.0,0 STARLINK-3332,1 50825U 22001Y   23308.46148038 -.00000047  00000-0  15156-4 0  9999,2 50825  53.2180  52.8761 0001450  92.8493 267.2665 15.08836683102415,6917.891,95.438,540.759,538.752,0.0
50825.0,STARLINK-3332,PAYLOAD,2023-11-04 14:15:17,15.08840932,0.0001325,53.2174,52.2855,85.2191,274.8952,2.0871e-05,4.4e-07,0.0,0 STARLINK-3332,1 50825U 22001Y   23308.59395774  .00000044  00000-0  20871-4 0  9990,2 50825  53.2174  52.2855 0001325  85.2191 274.8952 15.08840932101164,6917.878,95.437,540.659,538.826,0.0
50825.0,STARLINK-3332,PAYLOAD,2023-11-05 10:55:18,15.08852188,0.0001304,53.2176,48.42,86.7581,273.3561,0.00017626,2.519e-05,0.0,0 STARLINK-3332,1 50825U 22001Y   23309.45507484  .00002519  00000-0  17626-3 0  9991,2 50825  53.2176  48.4200 0001304  86.7581 273.3561 15.08852188102564,6917.843,95.437,540.61,538.806,0.0
50825.0,STARLINK-3332,PAYLOAD,2023-11-05 14:06:04,15.08862615,0.0001471,53.218,47.8219,80.3588,279.757,0.00044026,6.73e-05,0.0,0 STARLINK-3332,1 50825U 22001Y   23309.58754920  .00006730  00000-0  44026-3 0  9997,2 50825  53.2180  47.8219 0001471  80.3588 279.7570 15.08862615101312,6917.811,95.436,540.694,538.659,0.0
50825.0,STARLINK-3332,PAYLOAD,2023-11-06 10:46:04,15.08861104,0.0001247,53.2172,43.9592,106.9847,253.1281,0.00035261,5.332e-05,0.0,0 STARLINK-3332,1 50825U 22001Y   23310.44866318  .00005332  00000-0  35261-3 0  9997,2 50825  53.2172  43.9592 0001247 106.9847 253.1281 15.08861104102710,6917.816,95.436,540.544,538.818,0.0
50825.0,STARLINK-3332,PAYLOAD,2023-11-06 13:56:52,15.08801312,0.0001272,53.2173,43.3656,81.1881,278.9256,-0.00089089,-0.00014423,0.0,0 STARLINK-3332,1 50825U 22001Y   23310.58116503 -.00014423  00000-0 -89089-3 0  9996,2 50825  53.2173  43.3656 0001272  81.1881 278.9256 15.08801312101469,6917.999,95.44,540.744,538.984,0.0
50825.0,STARLINK-3332,PAYLOAD,2023-11-07 12:12:18,15.08799131,0.0001175,53.2168,39.2033,76.0572,284.055,-0.0001683,-2.962e-05,0.0,0 STARLINK-3332,1 50825U 22001Y   23311.50854390 -.00002962  00000-0 -16830-3 0  9991,2 50825  53.2168  39.2033 0001175  76.0572 284.0550 15.08799131102874,6918.005,95.44,540.683,539.057,0.0
50825.0,STARLINK-3332,PAYLOAD,2023-11-07 13:47:41,15.08793869,0.0001415,53.217,38.9061,75.9986,284.1163,0.00095356,0.00014901,0.0,0 STARLINK-3332,1 50825U 22001Y   23311.57478908  .00014901  00000-0  95356-3 0  9999,2 50825  53.2170  38.9061 0001415  75.9986 284.1163 15.08793869101612,6918.021,95.44,540.865,538.907,0.0
50825.0,STARLINK-3332,PAYLOAD,2023-11-07 23:20:00,15.088295,0.0001376,53.2178,37.1207,76.6436,283.4709,0.0019006,0.00030081,0.0,0 STARLINK-3332,1 50825U 22001Y   23311.97223365  .00030081  00000-0  19006-2 0  9992,2 50825  53.2178  37.1207 0001376  76.6436 283.4709 15.08829500102944,6917.912,95.438,540.729,538.826,0.0
50825.0,STARLINK-3332,PAYLOAD,2023-11-08 12:03:05,15.08878876,0.0001428,53.2176,34.7412,74.0413,286.0736,0.0022821,0.00036258,0.0,0 STARLINK-3332,1 50825U 22001Y   23312.50214544  .00036258  00000-0  22821-2 0  9992,2 50825  53.2176  34.7412 0001428  74.0413 286.0736 15.08878876103027,6917.762,95.435,540.614,538.639,0.0
50825.0,STARLINK-3332,PAYLOAD,2023-11-08 23:10:46,15.08879703,0.0002177,53.2173,32.6659,43.3144,316.8019,0.0012747,0.00020079,0.0,0 STARLINK-3332,1 50825U 22001Y   23312.96581939  .00020079  00000-0  12747-2 0  9997,2 50825  53.2173  32.6659 0002177  43.3144 316.8019 15.08879703103099,6917.759,95.435,541.13,538.118,0.0
50825.0,STARLINK-3332,PAYLOAD,2023-11-09 11:53:51,15.0886838,0.0001308,53.218,30.2816,80.9422,279.1718,0.0020612,0.00032694,0.0,0 STARLINK-3332,1 50825U 22001Y   23313.49573301  .00032694  00000-0  20612-2 0  9996,2 50825  53.2180  30.2816 0001308  80.9422 279.1718 15.08868380103172,6917.794,95.436,540.563,538.754,0.0
50825.0,STARLINK-3332,PAYLOAD,2023-11-10 11:44:38,15.08857353,0.0001418,53.219,25.8219,102.3485,257.7666,0.00096977,0.00015187,0.0,0 STARLINK-3332,1 50825U 22001Y   23314.48932916  .00015187  00000-0  96977-3 0  9993,2 50825  53.2190  25.8219 0001418 102.3485 257.7666 15.08857353103329,6917.827,95.436,540.673,538.711,0.0
50825.0,STARLINK-3332,PAYLOAD,2023-11-10 21:16:56,15.08842057,0.000175,53.2198,24.0377,97.0577,263.0615,0.00030322,4.541e-05,0.0,0 STARLINK-3332,1 50825U 22001Y   23314.88677048  .00004541  00000-0  30322-3 0  9993,2 50825  53.2198  24.0377 0001750  97.0577 263.0615 15.08842057102119,6917.874,95.437,540.95,538.528,0.0
50825.0,STARLINK-3332,PAYLOAD,2023-11-11 11:35:24,15.08849163,0.0001587,53.2192,21.3631,100.1991,259.9181,0.00011009,1.465e-05,0.0,0 STARLINK-3332,1 50825U 22001Y   23315.48292758  .00001465  00000-0  11009-3 0  9994,2 50825  53.2192  21.3631 0001587 100.1991 259.9181 15.08849163102207,6917.852,95.437,540.815,538.62,0.0
